[{"OBJECT_NAME":"FORMOSAT-5","OBJECT_ID":"2017-049A","EPOCH":"2026-03-09T21:06:30.002688","MEAN_MOTION":14.50821744,"ECCENTRICITY":0.00116882,"INCLINATION":98.2311,"RA_OF_ASC_NODE":146.3833,"ARG_OF_PERICENTER":35.9482,"MEAN_ANOMALY":324.2497,"EPHEMERIS_TYPE":0,"CLASSIFICATION_TYPE":"U","NORAD_CAT_ID":42920,"ELEMENT_SET_NO":999,"REV_AT_EPOCH":45227,"BSTAR":8.2289571e-5,"MEAN_MOTION_DOT":2.81e-6,"MEAN_MOTION_DDOT":0},{"OBJECT_NAME":"IRIDIUM 33 DEB","OBJECT_ID":"1997-051AP","EPOCH":"2026-03-09T22:41:58.238880","MEAN_MOTION":14.46405409,"ECCENTRICITY":0.00181801,"INCLINATION":86.378,"RA_OF_ASC_NODE":20.8534,"ARG_OF_PERICENTER":252.6626,"MEAN_ANOMALY":179.8727,"EPHEMERIS_TYPE":0,"CLASSIFICATION_TYPE":"U","NORAD_CAT_ID":33870,"ELEMENT_SET_NO":999,"REV_AT_EPOCH":89397,"BSTAR":0.00096045539,"MEAN_MOTION_DOT":3.475e-5,"MEAN_MOTION_DDOT":0}]
